{"type": "FeatureCollection", "features": [ {"type": "Feature", "properties": {"norad_id": 29892, "name": "FENGYUN 1C DEB", "group": "fengyun-1c-debris", "lat": -51.574201925936336, "lon": -51.25050377523199, "alt_km": 697.4033125968963, "timestamp": "2025-12-18T14:52:08.297772+00:00", "meta": {"OBJECT_NAME": "FENGYUN 1C DEB", "OBJECT_ID": "1999-025GN", "EPOCH": "2025-12-17T23:14:54.271680", "MEAN_MOTION": 14.32284548, "ECCENTRICITY": 0.01917741, "INCLINATION": 99.18, "RA_OF_ASC_NODE": 139.8221, "ARG_OF_PERICENTER": 282.209, "MEAN_ANOMALY": 197.76, "EPHEMERIS_TYPE": 0, "CLASSIFICATION_TYPE": "U", "NORAD_CAT_ID": 29892, "ELEMENT_SET_NO": 999, "REV_AT_EPOCH": 96724, "BSTAR": 0.0025339274, "MEAN_MOTION_DOT": 8.334e-05, "MEAN_MOTION_DDOT": 0}, "tle": {"line1": "1 29892U 99025GN  25351.96868370  .00008334  00000+0  25339-2 0  9999", "line2": "2 29892  99.1800 139.8221 0191774 282.2090 197.7600 14.32284548967246"}}, "geometry": {"type": "Point", "coordinates": [-51.25050377523199, -51.574201925936336]}}, {"type": "Feature", "properties": {"norad_id": 29893, "name": "FENGYUN 1C DEB", "group": "fengyun-1c-debris", "lat": -38.36923754267325, "lon": 94.96312811111137, "alt_km": 1099.569079809995, "timestamp": "2025-12-18T14:52:08.297783+00:00", "meta": {"OBJECT_NAME": "FENGYUN 1C DEB", "OBJECT_ID": "1999-025GP", "EPOCH": "2025-12-18T06:26:26.353248", "MEAN_MOTION": 13.79464057, "ECCENTRICITY": 0.017384, "INCLINATION": 98.5533, "RA_OF_ASC_NODE": 87.8027, "ARG_OF_PERICENTER": 138.5171, "MEAN_ANOMALY": 239.79, "EPHEMERIS_TYPE": 0, "CLASSIFICATION_TYPE": "U", "NORAD_CAT_ID": 29893, "ELEMENT_SET_NO": 999, "REV_AT_EPOCH": 95216, "BSTAR": 0.00016819543, "MEAN_MOTION_DOT": 1.57e-06, "MEAN_MOTION_DDOT": 0}, "tle": {"line1": "1 29893U 99025GP  25352.26836057  .00000157  00000+0  16820-3 0  9992", "line2": "2 29893  98.5533  87.8027 0173840 138.5171 239.7900 13.79464057952166"}}, "geometry": {"type": "Point", "coordinates": [94.96312811111137, -38.36923754267325]}}, {"type": "Feature", "properties": {"norad_id": 29894, "name": "FENGYUN 1C DEB", "group": "fengyun-1c-debris", "lat": 21.32506883604212, "lon": 43.21806119807982, "alt_km": 837.7520970218629, "timestamp": "2025-12-18T14:52:08.297792+00:00", "meta": {"OBJECT_NAME": "FENGYUN 1C DEB", "OBJECT_ID": "1999-025GQ", "EPOCH": "2025-12-18T02:44:03.228864", "MEAN_MOTION": 13.80979017, "ECCENTRICITY": 0.01682336, "INCLINATION": 99.4854, "RA_OF_ASC_NODE": 46.4525, "ARG_OF_PERICENTER": 30.8568, "MEAN_ANOMALY": 358.8002, "EPHEMERIS_TYPE": 0, "CLASSIFICATION_TYPE": "U", "NORAD_CAT_ID": 29894, "ELEMENT_SET_NO": 999, "REV_AT_EPOCH": 95151, "BSTAR": 0.0004619016, "MEAN_MOTION_DOT": 4.98e-06, "MEAN_MOTION_DDOT": 0}, "tle": {"line1": "1 29894U 99025GQ  25352.11392626  .00000498  00000+0  46190-3 0  9997", "line2": "2 29894  99.4854  46.4525 0168233  30.8568 358.8002 13.80979017951514"}}, "geometry": {"type": "Point", "coordinates": [43.21806119807982, 21.32506883604212]}}, {"type": "Feature", "properties": {"norad_id": 29895, "name": "FENGYUN 1C DEB", "group": "fengyun-1c-debris", "lat": -19.809446130693978, "lon": 105.18126813343552, "alt_km": 658.0979907477831, "timestamp": "2025-12-18T14:52:08.297802+00:00", "meta": {"OBJECT_NAME": "FENGYUN 1C DEB", "OBJECT_ID": "1999-025GR", "EPOCH": "2025-12-18T06:32:00.990816", "MEAN_MOTION": 14.08287584, "ECCENTRICITY": 0.02994629, "INCLINATION": 99.8852, "RA_OF_ASC_NODE": 101.1994, "ARG_OF_PERICENTER": 328.5436, "MEAN_ANOMALY": 50.8864, "EPHEMERIS_TYPE": 0, "CLASSIFICATION_TYPE": "U", "NORAD_CAT_ID": 29895, "ELEMENT_SET_NO": 999, "REV_AT_EPOCH": 95602, "BSTAR": 0.0016989624, "MEAN_MOTION_DOT": 4.331e-05, "MEAN_MOTION_DDOT": 0}, "tle": {"line1": "1 29895U 99025GR  25352.27223369  .00004331  00000+0  16990-2 0  9996", "line2": "2 29895  99.8852 101.1994 0299462 328.5436  50.8864 14.08287584956024"}}, "geometry": {"type": "Point", "coordinates": [105.18126813343552, -19.809446130693978]}}, {"type": "Feature", "properties": {"norad_id": 29896, "name": "FENGYUN 1C DEB", "group": "fengyun-1c-debris", "lat": -41.10492272760897, "lon": 55.854827553117836, "alt_km": 1145.7665138346547, "timestamp": "2025-12-18T14:52:08.297812+00:00", "meta": {"OBJECT_NAME": "FENGYUN 1C DEB", "OBJECT_ID": "1999-025GS", "EPOCH": "2025-12-18T03:59:16.796832", "MEAN_MOTION": 13.65373964, "ECCENTRICITY": 0.02399191, "INCLINATION": 99.4225, "RA_OF_ASC_NODE": 243.7446, "ARG_OF_PERICENTER": 87.964, "MEAN_ANOMALY": 64.4438, "EPHEMERIS_TYPE": 0, "CLASSIFICATION_TYPE": "U", "NORAD_CAT_ID": 29896, "ELEMENT_SET_NO": 999, "REV_AT_EPOCH": 94116, "BSTAR": 0.00058264539, "MEAN_MOTION_DOT": 5.36e-06, "MEAN_MOTION_DDOT": 0}, "tle": {"line1": "1 29896U 99025GS  25352.16616663  .00000536  00000+0  58265-3 0  9993", "line2": "2 29896  99.4225 243.7446 0239919  87.9640  64.4438 13.65373964941161"}}, "geometry": {"type": "Point", "coordinates": [55.854827553117836, -41.10492272760897]}}, {"type": "Feature", "properties": {"norad_id": 29897, "name": "FENGYUN 1C DEB", "group": "fengyun-1c-debris", "lat": -34.74801169859193, "lon": -137.7736587486331, "alt_km": 1256.046477599697, "timestamp": "2025-12-18T14:52:08.297822+00:00", "meta": {"OBJECT_NAME": "FENGYUN 1C DEB", "OBJECT_ID": "1999-025GT", "EPOCH": "2025-12-17T14:25:33.441600", "MEAN_MOTION": 13.57200283, "ECCENTRICITY": 0.02966784, "INCLINATION": 98.6298, "RA_OF_ASC_NODE": 215.2843, "ARG_OF_PERICENTER": 126.0243, "MEAN_ANOMALY": 266.6756, "EPHEMERIS_TYPE": 0, "CLASSIFICATION_TYPE": "U", "NORAD_CAT_ID": 29897, "ELEMENT_SET_NO": 999, "REV_AT_EPOCH": 93006, "BSTAR": 0.0017231343, "MEAN_MOTION_DOT": 1.601e-05, "MEAN_MOTION_DDOT": 0}, "tle": {"line1": "1 29897U 99025GT  25351.60108150  .00001601  00000+0  17231-2 0  9990", "line2": "2 29897  98.6298 215.2843 0296678 126.0243 266.6756 13.57200283930067"}}, "geometry": {"type": "Point", "coordinates": [-137.7736587486331, -34.74801169859193]}}, {"type": "Feature", "properties": {"norad_id": 29898, "name": "FENGYUN 1C DEB", "group": "fengyun-1c-debris", "lat": -65.58255457464705, "lon": 2.7088999420975957, "alt_km": 1151.3293534070344, "timestamp": "2025-12-18T14:52:08.297832+00:00", "meta": {"OBJECT_NAME": "FENGYUN 1C DEB", "OBJECT_ID": "1999-025GU", "EPOCH": "2025-12-17T21:50:45.114432", "MEAN_MOTION": 13.70337644, "ECCENTRICITY": 0.0427029, "INCLINATION": 98.2224, "RA_OF_ASC_NODE": 343.5285, "ARG_OF_PERICENTER": 175.3212, "MEAN_ANOMALY": 216.2786, "EPHEMERIS_TYPE": 0, "CLASSIFICATION_TYPE": "U", "NORAD_CAT_ID": 29898, "ELEMENT_SET_NO": 999, "REV_AT_EPOCH": 93232, "BSTAR": 0.0013235079, "MEAN_MOTION_DOT": 2.197e-05, "MEAN_MOTION_DDOT": 0}, "tle": {"line1": "1 29898U 99025GU  25351.91024438  .00002197  00000+0  13235-2 0  9992", "line2": "2 29898  98.2224 343.5285 0427029 175.3212 216.2786 13.70337644932329"}}, "geometry": {"type": "Point", "coordinates": [2.7088999420975957, -65.58255457464705]}}, {"type": "Feature", "properties": {"norad_id": 29899, "name": "FENGYUN 1C DEB", "group": "fengyun-1c-debris", "lat": -3.95001237326132, "lon": 147.87453674677386, "alt_km": 1015.1224906768384, "timestamp": "2025-12-18T14:52:08.297842+00:00", "meta": {"OBJECT_NAME": "FENGYUN 1C DEB", "OBJECT_ID": "1999-025GV", "EPOCH": "2025-12-17T20:56:06.758016", "MEAN_MOTION": 13.37493985, "ECCENTRICITY": 0.03535074, "INCLINATION": 98.6621, "RA_OF_ASC_NODE": 146.6338, "ARG_OF_PERICENTER": 66.101, "MEAN_ANOMALY": 297.6734, "EPHEMERIS_TYPE": 0, "CLASSIFICATION_TYPE": "U", "NORAD_CAT_ID": 29899, "ELEMENT_SET_NO": 999, "REV_AT_EPOCH": 92153, "BSTAR": 0.0001729564, "MEAN_MOTION_DOT": 9.7e-07, "MEAN_MOTION_DDOT": 0}, "tle": {"line1": "1 29899U 99025GV  25351.87230044  .00000097  00000+0  17296-3 0  9999", "line2": "2 29899  98.6621 146.6338 0353507  66.1010 297.6734 13.37493985921539"}}, "geometry": {"type": "Point", "coordinates": [147.87453674677386, -3.95001237326132]}}, {"type": "Feature", "properties": {"norad_id": 29901, "name": "FENGYUN 1C DEB", "group": "fengyun-1c-debris", "lat": 77.27865356877172, "lon": 25.578846260475004, "alt_km": 1408.641317491506, "timestamp": "2025-12-18T14:52:08.297853+00:00", "meta": {"OBJECT_NAME": "FENGYUN 1C DEB", "OBJECT_ID": "1999-025GX", "EPOCH": "2025-12-17T11:40:07.504608", "MEAN_MOTION": 13.33256554, "ECCENTRICITY": 0.03791584, "INCLINATION": 98.7444, "RA_OF_ASC_NODE": 161.6292, "ARG_OF_PERICENTER": 273.4679, "MEAN_ANOMALY": 149.5472, "EPHEMERIS_TYPE": 0, "CLASSIFICATION_TYPE": "U", "NORAD_CAT_ID": 29901, "ELEMENT_SET_NO": 999, "REV_AT_EPOCH": 91982, "BSTAR": 0.00038404513, "MEAN_MOTION_DOT": 2.44e-06, "MEAN_MOTION_DDOT": 0}, "tle": {"line1": "1 29901U 99025GX  25351.48619797  .00000244  00000+0  38405-3 0  9995", "line2": "2 29901  98.7444 161.6292 0379158 273.4679 149.5472 13.33256554919825"}}, "geometry": {"type": "Point", "coordinates": [25.578846260475004, 77.27865356877172]}}, {"type": "Feature", "properties": {"norad_id": 29904, "name": "FENGYUN 1C DEB", "group": "fengyun-1c-debris", "lat": 36.126167083532394, "lon": -142.45922619822926, "alt_km": 877.625886871906, "timestamp": "2025-12-18T14:52:08.297863+00:00", "meta": {"OBJECT_NAME": "FENGYUN 1C DEB", "OBJECT_ID": "1999-025HA", "EPOCH": "2025-12-17T19:54:28.959840", "MEAN_MOTION": 14.44499436, "ECCENTRICITY": 0.02075271, "INCLINATION": 99.0411, "RA_OF_ASC_NODE": 30.0265, "ARG_OF_PERICENTER": 303.4935, "MEAN_ANOMALY": 54.6573, "EPHEMERIS_TYPE": 0, "CLASSIFICATION_TYPE": "U", "NORAD_CAT_ID": 29904, "ELEMENT_SET_NO": 999, "REV_AT_EPOCH": 99137, "BSTAR": 0.00034552485, "MEAN_MOTION_DOT": 1.49e-05, "MEAN_MOTION_DDOT": 0}, "tle": {"line1": "1 29904U 99025HA  25351.82950185  .00001490  00000+0  34552-3 0  9998", "line2": "2 29904  99.0411  30.0265 0207527 303.4935  54.6573 14.44499436991373"}}, "geometry": {"type": "Point", "coordinates": [-142.45922619822926, 36.126167083532394]}}]}